[{"OBJECT_NAME":"STARLINK-30239","OBJECT_ID":"2023-096B","EPOCH":"2026-03-09T22:00:01.999584","MEAN_MOTION":15.17291033,"ECCENTRICITY":0.00011539,"INCLINATION":42.9992,"RA_OF_ASC_NODE":221.2546,"ARG_OF_PERICENTER":297.0499,"MEAN_ANOMALY":275.4383,"EPHEMERIS_TYPE":0,"CLASSIFICATION_TYPE":"U","NORAD_CAT_ID":57291,"ELEMENT_SET_NO":999,"REV_AT_EPOCH":578,"BSTAR":0.0046931464,"MEAN_MOTION_DOT":0.00096291,"MEAN_MOTION_DDOT":0},{"OBJECT_NAME":"NOAA 16 DEB","OBJECT_ID":"2000-055JP","EPOCH":"2026-03-07T06:03:41.025888","MEAN_MOTION":15.14327742,"ECCENTRICITY":0.002834,"INCLINATION":98.88,"RA_OF_ASC_NODE":0.7915,"ARG_OF_PERICENTER":107.2535,"MEAN_ANOMALY":253.1797,"EPHEMERIS_TYPE":0,"CLASSIFICATION_TYPE":"U","NORAD_CAT_ID":41370,"ELEMENT_SET_NO":999,"REV_AT_EPOCH":54059,"BSTAR":0.01119,"MEAN_MOTION_DOT":0.00212823,"MEAN_MOTION_DDOT":0}]
